{
    "links": {
        "self": "http://www.neowsapp.com/rest/v1/neo/3856718?api_key=iIulBulltgU6a56xZRHN4H3l9WmuAYTsLGpBGhQ2"
    },
    "id": "3856718",
    "neo_reference_id": "3856718",
    "name": "(2019 SR4)",
    "designation": "2019 SR4",
    "nasa_jpl_url": "http://ssd.jpl.nasa.gov/sbdb.cgi?sstr=3856718",
    "absolute_magnitude_h": 26.0,
    "estimated_diameter": {
        "kilometers": {
            "estimated_diameter_min": 0.0167708462,
            "estimated_diameter_max": 0.0375007522
        },
        "meters": {
            "estimated_diameter_min": 16.7708462163,
            "estimated_diameter_max": 37.5007521798
        },
        "miles": {
            "estimated_diameter_min": 0.0104209175,
            "estimated_diameter_max": 0.0233018799
        },
        "feet": {
            "estimated_diameter_min": 55.0224631002,
            "estimated_diameter_max": 123.0339677816
        }
    },
    "is_potentially_hazardous_asteroid": false,
    "close_approach_data": [
        {
            "close_approach_date": "2019-09-17",
            "close_approach_date_full": "2019-Sep-17 07:07",
            "epoch_date_close_approach": 1568704020000,
            "relative_velocity": {
                "kilometers_per_second": "11.5714965503",
                "kilometers_per_hour": "41657.3875809706",
                "miles_per_hour": "25884.2806332981"
            },
            "miss_distance": {
                "astronomical": "0.0136170804",
                "lunar": "5.2970442756",
                "kilometers": "2037086.223458748",
                "miles": "1265786.6839488024"
            },
            "orbiting_body": "Earth"
        }
    ],
    "orbital_data": {
        "orbit_id": "1",
        "orbit_determination_date": "2019-09-27 04:42:04",
        "first_observation_date": "2019-09-26",
        "last_observation_date": "2019-09-27",
        "data_arc_in_days": 1,
        "observations_used": 14,
        "orbit_uncertainty": "9",
        "minimum_orbit_intersection": ".0135443",
        "jupiter_tisserand_invariant": "3.525",
        "epoch_osculation": "2458753.5",
        "eccentricity": ".5566824678636151",
        "semi_major_axis": "2.100485826701147",
        "inclination": "7.04241155351562",
        "ascending_node_longitude": "179.3207168251831",
        "orbital_period": "1111.931567692928",
        "perihelion_distance": ".9311821929806068",
        "perihelion_argument": "135.4787130039226",
        "aphelion_distance": "3.269789460421687",
        "perihelion_time": "2458713.694990946514",
        "mean_anomaly": "12.88730680520825",
        "mean_motion": ".323760931391614",
        "equinox": "J2000",
        "orbit_class": {
            "orbit_class_type": "APO",
            "orbit_class_description": "Near-Earth asteroid orbits which cross the Earth’s orbit similar to that of 1862 Apollo",
            "orbit_class_range": "a (semi-major axis) > 1.0 AU; q (perihelion) < 1.017 AU"
        }
    },
    "is_sentry_object": false
}